1  9829U 77010A   20006.47411878  .99999999  10088-4  95425-3 0  9992
2  9829  61.4273  56.3577 0346833 286.1810 173.9476 15.90161140312820